#aV2008  1  8  0  0   .00000000      96 DD+AD WGS84 FIT  NGA
## 1461 172800.00000000   900.00000000 54473  .0000000000000
+   32     1  2  3  4  5  6  7  8  9 10 11 12 13 14 15 16 17
+         18 19 20 21 22 23 24 25 26 27 28 29 30 31 32  0  0
+          0  0  0  0  0  0  0  0  0  0  0  0  0  0  0  0  0
+          0  0  0  0  0  0  0  0  0  0  0  0  0  0  0  0  0
+          0  0  0  0  0  0  0  0  0  0  0  0  0  0  0  0  0
++         0  0  0  0  0  0  0  0  0  0  0  0  0  0  0  0  0
++         0  0  0  0  0  0  0  0  0  0  0  0  0  0  0  0  0
++         0  0  0  0  0  0  0  0  0  0  0  0  0  0  0  0  0
++         0  0  0  0  0  0  0  0  0  0  0  0  0  0  0  0  0
++         0  0  0  0  0  0  0  0  0  0  0  0  0  0  0  0  0
%c cc cc ccc ccc cccc cccc cccc cccc ccccc ccccc ccccc ccccc
%c cc cc ccc ccc cccc cccc cccc cccc ccccc ccccc ccccc ccccc
%f  0.0000000  0.000000000  0.00000000000  0.000000000000000
%f  0.0000000  0.000000000  0.00000000000  0.000000000000000
%i    0    0    0    0      0      0      0      0         0
%i    0    0    0    0      0      0      0      0         0
/*      NGA, ST. LOUIS,MO.                                  
/*   EPHEMERIS COMPUTED FROM  3 DAYS OF DATA                
/* CCCCCCCCCCCCCCCCCCCCCCCCCCCCCCCCCCCCCCCCCCCCCCCCCCCCCCCCC
/* CCCCCCCCCCCCCCCCCCCCCCCCCCCCCCCCCCCCCCCCCCCCCCCCCCCCCCCCC
*  2008  1  8  9 30   .00000000                                                 
P  1  16305.698114 -15400.961988 -13946.035075    177.670888                    
V  1  -5502.900789  17275.019050 -25183.597269       .024956                    
P  2 -19743.674146  12648.812745  11976.872199    164.617983                    
V  2 -15948.244173    -28.747672 -26178.928322       .029617                    
P  3  10790.508095 -23032.856339   6754.350377    169.790112                    
V  3   1826.972224   9726.273362  29533.185354       .054244                    
P  4 -26134.184372   5572.046001   1399.888556    -48.443832                    
V  4  -2362.616605  -2674.638314 -31065.632247      -.057119                    
P  5  15243.718991  21059.502455  -6052.769313    636.746152                    
V  5  -7435.149262  -2900.605024 -29982.592855       .176647                    
P  6  10231.774983  15320.686459  19301.945977    160.863844                    
V  6  -8677.559462  22689.047637 -13558.079193      -.148718                    
P  7  12767.982469  11194.545660  20752.463106     39.710479                    
V  7  -7896.049167  24482.543607  -8509.659293       .327795                    
P  8 -26056.497854   -677.590804   6174.895946   -136.319369                    
V  8   7548.060594  -2732.810388  30633.586531      -.012994                    
P  9   2199.762875  15185.053709 -22292.070146    104.697459                    
V  9 -26201.884210   5696.859954   1504.781909       .017876                    
P 10  -6219.861981  15091.142342  20759.783820   -200.327801                    
V 10 -17589.782665 -20116.869078   9622.135224      -.135630                    
P 11  -6109.850167 -15597.153252 -20755.671969     26.939823                    
V 11  24666.992053  -9299.471541     52.726509       .001234                    
P 12  10274.649342  22471.695674  -9748.241690   -353.647103                    
V 12  -9943.950031  -7924.325802 -28409.004955      -.010033                    
P 13  -9396.246525 -13144.151011  20982.961134    232.936688                    
V 13  10522.973143 -24641.681678 -10643.497110       .023310                    
P 14  16152.757173  -4528.905950 -20464.430190   -307.174974                    
V 14  -8617.540151  24721.974161 -12300.140790       .028670                    
P 15  -5853.050287  25615.899263  -3889.808460    -70.998542                    
V 15  -4330.195158   3779.888043  31158.595531      -.007053                    
P 16  10290.891205 -11256.135776  21810.321671    131.261717                    
V 16  17747.688103  21025.323419   2653.980242       .008910                    
P 17 -16521.846781   3428.700101 -20456.342447     44.857282                    
V 17   7950.886624 -24841.727980 -10721.428926      -.009027                    
P 18  19419.710848  17169.649480  -6405.433976   -213.716884                    
V 18   2979.548877   8209.351011  29891.841528       .027171                    
P 19   7394.009928 -25016.371818  -4427.923097     15.772015                    
V 19   5061.636163  -4083.923994  31104.321441       .016654                    
P 20 -12410.075990 -22287.018474  -7594.100204    122.982247                    
V 20   8467.391691   5201.406591 -29473.876186      -.007355                    
P 21  21668.757808   7170.899033  14215.901963     73.986993                    
V 21 -17059.280726   4932.297828  23181.957250      -.006451                    
P 22  19542.770365   5056.585628 -17122.029587    206.603604                    
V 22  12018.574324  18619.410833  19003.209047       .007341                    
P 23  -1249.575565 -22976.908054  12992.635849    324.589669                    
V 23   7655.028653 -14974.130131 -25842.330977       .030528                    
P 24   9465.953370  13652.458656  20839.580248     60.640446                    
V 24 -25792.509758   4416.447447   9185.664880       .032243                    
P 25 -15994.290580  -9407.956588  19310.802050    498.673927                    
V 25  22517.521198  -7803.672200  15294.535827       .033957                    
P 26  -8567.045413  24770.365015  -1944.561469    149.444969                    
V 26  -2792.941802    966.465222  32706.215667       .108335                    
P 27 -21138.280362  -5919.888893  15750.108017    159.492055                    
V 27  17790.986231  -6010.425372  22409.091271       .024998                    
P 28 -20166.540951  -8199.147736 -15092.341834    -13.347256                    
V 28 -10951.548654 -16437.722288  22674.729989      -.004754                    
P 29   3294.417049  21626.377858  15202.740373    -85.531903                    
V 29  -8588.253716  17173.853650 -22758.455874       .109748                    
P 30  18160.925150  19448.434893    186.937499     59.110694                    
V 30  -1880.665432   2595.938447 -31406.211947       .013102                    
P 31  25206.322188  -7613.912912   4025.439757     -4.510705                    
V 31   5223.381000   1577.948952 -31268.046272      -.014503                    
P 32  15225.691459  -3410.954679 -21008.960337    195.777495                    
V 32  15632.595618  22945.704514   7600.389347       .108484                    
EOF
